[{"OBJECT_NAME":"STARLINK-34928","OBJECT_ID":"2025-175X","EPOCH":"2026-03-09T14:47:24.405216","MEAN_MOTION":15.05647683,"ECCENTRICITY":0.0001825,"INCLINATION":97.6015,"RA_OF_ASC_NODE":302.6523,"ARG_OF_PERICENTER":69.2169,"MEAN_ANOMALY":290.9254,"EPHEMERIS_TYPE":0,"CLASSIFICATION_TYPE":"U","NORAD_CAT_ID":65195,"ELEMENT_SET_NO":999,"REV_AT_EPOCH":3263,"BSTAR":0.00016214,"MEAN_MOTION_DOT":2.279e-5,"MEAN_MOTION_DDOT":0},{"OBJECT_NAME":"UNKNOWN","OBJECT_ID":"","EPOCH":"2026-03-08T12:59:39.172704","MEAN_MOTION":15.0131728,"ECCENTRICITY":0.00204305,"INCLINATION":86.3534,"RA_OF_ASC_NODE":358.469,"ARG_OF_PERICENTER":121.5673,"MEAN_ANOMALY":238.7558,"EPHEMERIS_TYPE":0,"CLASSIFICATION_TYPE":"U","NORAD_CAT_ID":270086,"ELEMENT_SET_NO":999,"REV_AT_EPOCH":9441,"BSTAR":0.0053525659,"MEAN_MOTION_DOT":0.00069778,"MEAN_MOTION_DDOT":0}]
